STARLINK-4120           
1 53537U 22101L   26068.33156427  .00000544  00000+0  52280-4 0  9995
2 53537  53.2175  75.6981 0001521  88.4974 271.6193 15.08821178196111
PRSC-S1                 
1 65055U 25164A   26068.60758212  .00007316  00000+0  46631-3 0  9991
2 65055  41.1290 129.3637 0004466 348.3012  11.7698 15.08919510 33403
